{
  "type": "FeatureCollection",
  "features": [
    {
      "type": "Feature",
      "properties": {
        "norad_id": 34121,
        "name": "COSMOS 2251 DEB",
        "group": "cosmos-2251-debris",
        "lat": 69.90956078758875,
        "lon": 134.81832600526178,
        "alt_km": 1067.2150190876318,
        "timestamp": "2025-12-20T22:39:11.018800+00:00",
        "meta_object_name": "COSMOS 2251 DEB",
        "meta_object_id": "1993-036KS",
        "meta_epoch": "2025-12-20T14:11:01.376160",
        "meta_mean_motion": 13.91955466,
        "meta_eccentricity": 0.02407641,
        "meta_inclination": 73.9924,
        "meta_ra_of_asc_node": 83.7157,
        "meta_arg_of_pericenter": 287.5172,
        "meta_mean_anomaly": 181.1881,
        "meta_ephemeris_type": 0,
        "meta_classification_type": "U",
        "meta_norad_cat_id": 34121,
        "meta_element_set_no": 999,
        "meta_rev_at_epoch": 85234,
        "meta_bstar": 0.00086705788,
        "meta_mean_motion_dot": 1.376e-05,
        "meta_mean_motion_ddot": 0,
        "tle_line1": "1 34121U 93036KS  25354.59098815  .00001376  00000+0  86706-3 0  9992",
        "tle_line2": "2 34121  73.9924  83.7157 0240764 287.5172 181.1881 13.91955466852342"
      },
      "geometry": {
        "type": "Point",
        "coordinates": [
          134.81832600526178,
          69.90956078758875
        ]
      }
    },
    {
      "type": "Feature",
      "properties": {
        "norad_id": 34122,
        "name": "COSMOS 2251 DEB",
        "group": "cosmos-2251-debris",
        "lat": -33.88810496441118,
        "lon": 91.76504180036693,
        "alt_km": 632.0757390714398,
        "timestamp": "2025-12-20T22:39:11.018809+00:00",
        "meta_object_name": "COSMOS 2251 DEB",
        "meta_object_id": "1993-036KT",
        "meta_epoch": "2025-12-19T17:59:46.157856",
        "meta_mean_motion": 14.65126194,
        "meta_eccentricity": 0.0084721,
        "meta_inclination": 74.0362,
        "meta_ra_of_asc_node": 105.1466,
        "meta_arg_of_pericenter": 0.0124,
        "meta_mean_anomaly": 149.8471,
        "meta_ephemeris_type": 0,
        "meta_classification_type": "U",
        "meta_norad_cat_id": 34122,
        "meta_element_set_no": 999,
        "meta_rev_at_epoch": 88787,
        "meta_bstar": 0.00069383656,
        "meta_mean_motion_dot": 3.9e-05,
        "meta_mean_motion_ddot": 0,
        "tle_line1": "1 34122U 93036KT  25353.74983979  .00003900  00000+0  69384-3 0  9991",
        "tle_line2": "2 34122  74.0362 105.1466 0084721   0.0124 149.8471 14.65126194887879"
      },
      "geometry": {
        "type": "Point",
        "coordinates": [
          91.76504180036693,
          -33.88810496441118
        ]
      }
    },
    {
      "type": "Feature",
      "properties": {
        "norad_id": 34127,
        "name": "COSMOS 2251 DEB",
        "group": "cosmos-2251-debris",
        "lat": -30.56780468030343,
        "lon": 19.39552426009535,
        "alt_km": 806.4876262570824,
        "timestamp": "2025-12-20T22:39:11.018818+00:00",
        "meta_object_name": "COSMOS 2251 DEB",
        "meta_object_id": "1993-036KY",
        "meta_epoch": "2025-12-20T13:19:41.195424",
        "meta_mean_motion": 14.31609842,
        "meta_eccentricity": 0.01148833,
        "meta_inclination": 74.1792,
        "meta_ra_of_asc_node": 29.7384,
        "meta_arg_of_pericenter": 228.199,
        "meta_mean_anomaly": 257.0528,
        "meta_ephemeris_type": 0,
        "meta_classification_type": "U",
        "meta_norad_cat_id": 34127,
        "meta_element_set_no": 999,
        "meta_rev_at_epoch": 86883,
        "meta_bstar": 0.00099922303,
        "meta_mean_motion_dot": 2.836e-05,
        "meta_mean_motion_ddot": 0,
        "tle_line1": "1 34127U 93036KY  25354.55533791  .00002836  00000+0  99922-3 0  9997",
        "tle_line2": "2 34127  74.1792  29.7384 0114883 228.1990 257.0528 14.31609842868838"
      },
      "geometry": {
        "type": "Point",
        "coordinates": [
          19.39552426009535,
          -30.56780468030343
        ]
      }
    },
    {
      "type": "Feature",
      "properties": {
        "norad_id": 34128,
        "name": "COSMOS 2251 DEB",
        "group": "cosmos-2251-debris",
        "lat": 65.40476271300005,
        "lon": -41.20115775967607,
        "alt_km": 541.9747709700978,
        "timestamp": "2025-12-20T22:39:11.018827+00:00",
        "meta_object_name": "COSMOS 2251 DEB",
        "meta_object_id": "1993-036KZ",
        "meta_epoch": "2025-12-20T01:36:15.547968",
        "meta_mean_motion": 15.01428309,
        "meta_eccentricity": 0.00260273,
        "meta_inclination": 73.9993,
        "meta_ra_of_asc_node": 281.7665,
        "meta_arg_of_pericenter": 32.4281,
        "meta_mean_anomaly": 339.9968,
        "meta_ephemeris_type": 0,
        "meta_classification_type": "U",
        "meta_norad_cat_id": 34128,
        "meta_element_set_no": 999,
        "meta_rev_at_epoch": 89277,
        "meta_bstar": 0.00099436243,
        "meta_mean_motion_dot": 0.00012915,
        "meta_mean_motion_ddot": 0,
        "tle_line1": "1 34128U 93036KZ  25354.06684662  .00012915  00000+0  99436-3 0  9997",
        "tle_line2": "2 34128  73.9993 281.7665 0026027  32.4281 339.9968 15.01428309892775"
      },
      "geometry": {
        "type": "Point",
        "coordinates": [
          -41.20115775967607,
          65.40476271300005
        ]
      }
    },
    {
      "type": "Feature",
      "properties": {
        "norad_id": 34129,
        "name": "COSMOS 2251 DEB",
        "group": "cosmos-2251-debris",
        "lat": -43.03221700801396,
        "lon": -52.03012081183206,
        "alt_km": 647.6302809720237,
        "timestamp": "2025-12-20T22:39:11.018836+00:00",
        "meta_object_name": "COSMOS 2251 DEB",
        "meta_object_id": "1993-036LA",
        "meta_epoch": "2025-12-20T06:35:18.877056",
        "meta_mean_motion": 14.75860485,
        "meta_eccentricity": 0.00332842,
        "meta_inclination": 74.0352,
        "meta_ra_of_asc_node": 324.7802,
        "meta_arg_of_pericenter": 43.9199,
        "meta_mean_anomaly": 316.4612,
        "meta_ephemeris_type": 0,
        "meta_classification_type": "U",
        "meta_norad_cat_id": 34129,
        "meta_element_set_no": 999,
        "meta_rev_at_epoch": 61409,
        "meta_bstar": 0.00098354282,
        "meta_mean_motion_dot": 6.785e-05,
        "meta_mean_motion_ddot": 0,
        "tle_line1": "1 34129U 93036LA  25354.27452404  .00006785  00000+0  98354-3 0  9994",
        "tle_line2": "2 34129  74.0352 324.7802 0033284  43.9199 316.4612 14.75860485614094"
      },
      "geometry": {
        "type": "Point",
        "coordinates": [
          -52.03012081183206,
          -43.03221700801396
        ]
      }
    },
    {
      "type": "Feature",
      "properties": {
        "norad_id": 34136,
        "name": "COSMOS 2251 DEB",
        "group": "cosmos-2251-debris",
        "lat": -54.31404799902633,
        "lon": -130.03221982523473,
        "alt_km": 635.4923594361007,
        "timestamp": "2025-12-20T22:39:11.018845+00:00",
        "meta_object_name": "COSMOS 2251 DEB",
        "meta_object_id": "1993-036LH",
        "meta_epoch": "2025-12-20T12:22:24.199104",
        "meta_mean_motion": 14.80126204,
        "meta_eccentricity": 0.00852441,
        "meta_inclination": 74.0199,
        "meta_ra_of_asc_node": 27.2965,
        "meta_arg_of_pericenter": 148.1567,
        "meta_mean_anomaly": 327.1329,
        "meta_ephemeris_type": 0,
        "meta_classification_type": "U",
        "meta_norad_cat_id": 34136,
        "meta_element_set_no": 999,
        "meta_rev_at_epoch": 90125,
        "meta_bstar": 0.00024727996,
        "meta_mean_motion_dot": 1.959e-05,
        "meta_mean_motion_ddot": 0,
        "tle_line1": "1 34136U 93036LH  25354.51555786  .00001959  00000+0  24728-3 0  9998",
        "tle_line2": "2 34136  74.0199  27.2965 0085244 148.1567 327.1329 14.80126204901257"
      },
      "geometry": {
        "type": "Point",
        "coordinates": [
          -130.03221982523473,
          -54.31404799902633
        ]
      }
    },
    {
      "type": "Feature",
      "properties": {
        "norad_id": 34139,
        "name": "COSMOS 2251 DEB",
        "group": "cosmos-2251-debris",
        "lat": 55.39631971322943,
        "lon": -97.05272832354,
        "alt_km": 700.8436542466725,
        "timestamp": "2025-12-20T22:39:11.018854+00:00",
        "meta_object_name": "COSMOS 2251 DEB",
        "meta_object_id": "1993-036LL",
        "meta_epoch": "2025-12-20T03:22:42.008736",
        "meta_mean_motion": 14.59153127,
        "meta_eccentricity": 0.00425167,
        "meta_inclination": 74.0304,
        "meta_ra_of_asc_node": 239.9554,
        "meta_arg_of_pericenter": 309.8586,
        "meta_mean_anomaly": 211.6382,
        "meta_ephemeris_type": 0,
        "meta_classification_type": "U",
        "meta_norad_cat_id": 34139,
        "meta_element_set_no": 999,
        "meta_rev_at_epoch": 88257,
        "meta_bstar": 0.00082666383,
        "meta_mean_motion_dot": 3.915e-05,
        "meta_mean_motion_ddot": 0,
        "tle_line1": "1 34139U 93036LL  25354.14076399  .00003915  00000+0  82666-3 0  9997",
        "tle_line2": "2 34139  74.0304 239.9554 0042516 309.8586 211.6382 14.59153127882575"
      },
      "geometry": {
        "type": "Point",
        "coordinates": [
          -97.05272832354,
          55.39631971322943
        ]
      }
    }
  ]
}